[
  {
    "name": "ONEWEB-0193",
    "noradId": "48238",
    "line1": "1 48238U 21031AE  26194.78691672  .00000160  00000+0  39773-3 0  9998",
    "line2": "2 48238  87.8971 284.3990 0001803 113.6878 246.4441 13.14501968251807"
  },
  {
    "name": "ONEWEB-0191",
    "noradId": "48239",
    "line1": "1 48239U 21031AF  26194.79800559  .00000006  00000+0 -19601-4 0  9995",
    "line2": "2 48239  87.8977 284.3976 0001913  95.0170 265.1178 13.14506172251669"
  },
  {
    "name": "ONEWEB-0195",
    "noradId": "48240",
    "line1": "1 48240U 21031AG  26194.77502097  .00000249  00000+0  63596-3 0  9990",
    "line2": "2 48240  87.8984 284.4011 0002503  95.3027 264.8388 13.14503225251643"
  },
  {
    "name": "ONEWEB-0201",
    "noradId": "48241",
    "line1": "1 48241U 21031AH  26194.76325956  .00000125  00000+0  30346-3 0  9997",
    "line2": "2 48241  87.8967 284.4192 0002031  92.1598 267.9765 13.14502418251870"
  },
  {
    "name": "ONEWEB-0207",
    "noradId": "48242",
    "line1": "1 48242U 21031AJ  26194.74328620 -.00000209  00000+0 -59755-3 0  9997",
    "line2": "2 48242  87.8968 284.4102 0002000  92.8260 267.3099 13.14500715251784"
  },
  {
    "name": "ONEWEB-0208",
    "noradId": "48243",
    "line1": "1 48243U 21031AK  26194.80118257 -.00000048  00000+0 -16392-3 0  9999",
    "line2": "2 48243  87.8975 284.4026 0002377 104.1518 255.9876 13.14501929251805"
  },
  {
    "name": "ONEWEB-0200",
    "noradId": "48244",
    "line1": "1 48244U 21031AL  26194.76471743  .00000091  00000+0  21109-3 0  9995",
    "line2": "2 48244  87.8979 284.3997 0002112  98.5131 261.6238 13.14502333251727"
  },
  {
    "name": "ONEWEB-0217",
    "noradId": "48245",
    "line1": "1 48245U 21031AM  26194.78057176  .00000230  00000+0  58585-3 0  9991",
    "line2": "2 48245  87.8971 284.4016 0002387 103.5560 256.5836 13.14502729251670"
  },
  {
    "name": "ONEWEB-0211",
    "noradId": "48767",
    "line1": "1 48767U 21045A   26194.64586177 -.00000060  00000+0 -19080-3 0  9998",
    "line2": "2 48767  87.8990 253.8052 0002628 106.7454 253.3965 13.16197333247929"
  },
  {
    "name": "ONEWEB-0223",
    "noradId": "48768",
    "line1": "1 48768U 21045B   26194.66122051  .00000527  00000+0  13646-2 0  9995",
    "line2": "2 48768  87.9000 253.9163 0002497 115.6947 244.4441 13.15544667247887"
  },
  {
    "name": "ONEWEB-0230",
    "noradId": "48769",
    "line1": "1 48769U 21045C   26194.70875875  .00000056  00000+0  11481-3 0  9993",
    "line2": "2 48769  87.8984 253.9194 0001892  95.1204 265.0142 13.15548501248157"
  },
  {
    "name": "ONEWEB-0237",
    "noradId": "48770",
    "line1": "1 48770U 21045D   26194.69766377  .00000163  00000+0  39875-3 0  9995",
    "line2": "2 48770  87.8983 253.9233 0002377  97.4965 262.6436 13.15548095247875"
  },
  {
    "name": "ONEWEB-0235",
    "noradId": "48771",
    "line1": "1 48771U 21045E   26194.67229520  .00000063  00000+0  13254-3 0  9990",
    "line2": "2 48771  87.8992 253.9164 0002127 127.5248 232.6076 13.15549888247868"
  },
  {
    "name": "ONEWEB-0242",
    "noradId": "48772",
    "line1": "1 48772U 21045F   26194.66597493 -.00000067  00000+0 -21268-3 0  9997",
    "line2": "2 48772  87.8996 253.9148 0001949 102.2089 257.9259 13.15548359247909"
  },
  {
    "name": "ONEWEB-0241",
    "noradId": "48773",
    "line1": "1 48773U 21045G   26194.65328747 -.00000567  00000+0 -15403-2 0  9999",
    "line2": "2 48773  87.8988 253.9325 0002229 104.8860 255.2518 13.15541113247815"
  },
  {
    "name": "ONEWEB-0243",
    "noradId": "48774",
    "line1": "1 48774U 21045H   26194.68497951  .00000132  00000+0  31549-3 0  9993",
    "line2": "2 48774  87.8981 253.9392 0001828 111.8453 248.2872 13.15550878247849"
  },
  {
    "name": "ONEWEB-0222",
    "noradId": "48775",
    "line1": "1 48775U 21045J   26194.66834389 -.00000031  00000+0 -11596-3 0  9992",
    "line2": "2 48775  87.8992 253.9122 0002247 107.4769 252.6607 13.15546281247882"
  },
  {
    "name": "ONEWEB-0244",
    "noradId": "48776",
    "line1": "1 48776U 21045K   26194.69449885  .00000168  00000+0  41304-3 0  9998",
    "line2": "2 48776  87.9011 253.9013 0002079 100.9573 259.1791 13.15547678248450"
  },
  {
    "name": "ONEWEB-0247",
    "noradId": "48777",
    "line1": "1 48777U 21045L   26194.61527012  .00000127  00000+0  30435-3 0  9998",
    "line2": "2 48777  87.8979 253.9481 0002061 122.0904 238.0427 13.15548680247888"
  },
  {
    "name": "ONEWEB-0245",
    "noradId": "48778",
    "line1": "1 48778U 21045M   26194.68656257  .00000199  00000+0  49457-3 0  9993",
    "line2": "2 48778  87.8987 253.9156 0002166 104.2901 255.8470 13.15549746247869"
  },
  {
    "name": "ONEWEB-0229",
    "noradId": "48779",
    "line1": "1 48779U 21045N   26194.68182019  .00000016  00000+0  97424-5 0  9991",
    "line2": "2 48779  87.9001 253.9125 0002006  99.5530 260.5827 13.15547429247899"
  },
  {
    "name": "ONEWEB-0228",
    "noradId": "48780",
    "line1": "1 48780U 21045P   26194.71522742 -.00000033  00000+0 -12148-3 0  9997",
    "line2": "2 48780  87.9000 253.9005 0002095 101.0189 259.1177 13.15548981247812"
  },
  {
    "name": "ONEWEB-0232",
    "noradId": "48781",
    "line1": "1 48781U 21045Q   26194.68974955  .00000363  00000+0  93116-3 0  9999",
    "line2": "2 48781  87.8999 253.9062 0002800  83.6172 276.5277 13.15547891248132"
  },
  {
    "name": "ONEWEB-0231",
    "noradId": "48782",
    "line1": "1 48782U 21045R   26194.66755759 -.00000057  00000+0 -18522-3 0  9997",
    "line2": "2 48782  87.8996 253.9215 0002187 104.5720 255.5653 13.15546882247829"
  },
  {
    "name": "ONEWEB-0234",
    "noradId": "48783",
    "line1": "1 48783U 21045S   26194.70544926  .00000123  00000+0  29197-3 0  9997",
    "line2": "2 48783  87.8997 253.8960 0002565  97.9410 262.2011 13.15547307247969"
  },
  {
    "name": "ONEWEB-0238",
    "noradId": "48784",
    "line1": "1 48784U 21045T   26194.70571025  .00000106  00000+0  24701-3 0  9995",
    "line2": "2 48784  87.9006 253.8920 0002383  95.5616 264.5786 13.15548285247867"
  },
  {
    "name": "ONEWEB-0240",
    "noradId": "48785",
    "line1": "1 48785U 21045U   26194.72697164 -.00000105  00000+0 -31327-3 0  9994",
    "line2": "2 48785  87.8995 253.8987 0002379 104.0428 256.0967 13.15548861247899"
  },
  {
    "name": "ONEWEB-0246",
    "noradId": "48786",
    "line1": "1 48786U 21045V   26194.72143106 -.00000095  00000+0 -28577-3 0  9998",
    "line2": "2 48786  87.8994 253.9035 0002042  98.5694 261.5667 13.15547596247761"
  },
  {
    "name": "ONEWEB-0210",
    "noradId": "48787",
    "line1": "1 48787U 21045W   26194.69607937  .00000148  00000+0  35854-3 0  9995",
    "line2": "2 48787  87.8994 253.9059 0001762 127.8754 232.2536 13.15547957247805"
  },
  {
    "name": "ONEWEB-0214",
    "noradId": "48788",
    "line1": "1 48788U 21045X   26194.62872389  .00000086  00000+0  19384-3 0  9995",
    "line2": "2 48788  87.9004 253.9145 0001733 109.2726 250.8591 13.15546879247760"
  },
  {
    "name": "ONEWEB-0221",
    "noradId": "48789",
    "line1": "1 48789U 21045Y   26194.71192887  .00000009  00000+0 -11022-4 0  9992",
    "line2": "2 48789  87.8999 253.9075 0002155 104.0355 256.1015 13.15547817247869"
  },
  {
    "name": "ONEWEB-0213",
    "noradId": "48790",
    "line1": "1 48790U 21045Z   26194.70083538  .00000121  00000+0  28723-3 0  9994",
    "line2": "2 48790  87.8994 253.9132 0002065 108.2535 251.8820 13.15548294247929"
  },
  {
    "name": "ONEWEB-0212",
    "noradId": "48791",
    "line1": "1 48791U 21045AA  26194.67784688 -.00000003  00000+0 -43115-4 0  9999",
    "line2": "2 48791  87.8989 253.9126 0002124 100.4136 259.7234 13.15546888247916"
  },
  {
    "name": "ONEWEB-0227",
    "noradId": "48792",
    "line1": "1 48792U 21045AB  26194.67706522  .00000078  00000+0  17223-3 0  9991",
    "line2": "2 48792  87.8991 253.9123 0002129 100.4239 259.7131 13.15547970247869"
  },
  {
    "name": "ONEWEB-0226",
    "noradId": "48793",
    "line1": "1 48793U 21045AC  26194.67072479  .00000037  00000+0  64819-4 0  9998",
    "line2": "2 48793  87.8987 253.9186 0001994 106.3362 253.7987 13.15547646247835"
  },
  {
    "name": "ONEWEB-0224",
    "noradId": "48794",
    "line1": "1 48794U 21045AD  26194.71034480  .00000047  00000+0  90471-4 0  9998",
    "line2": "2 48794  87.8991 253.9422 0002940  98.3253 261.8211 13.15548255247764"
  },
  {
    "name": "ONEWEB-0233",
    "noradId": "48795",
    "line1": "1 48795U 21045AE  26194.71495348 -.00000004  00000+0 -43608-4 0  9998",
    "line2": "2 48795  87.8985 253.9488 0002233 104.9755 255.1622 13.15550349247787"
  },
  {
    "name": "ONEWEB-0190",
    "noradId": "48796",
    "line1": "1 48796U 21045AF  26194.70241839  .00000131  00000+0  31317-3 0  9994",
    "line2": "2 48796  87.8990 253.9156 0002215 116.4567 243.6791 13.15548539247850"
  },
  {
    "name": "ONEWEB-0236",
    "noradId": "48797",
    "line1": "1 48797U 21045AG  26194.71985090 -.00000079  00000+0 -24476-3 0  9991",
    "line2": "2 48797  87.8985 253.9193 0002166  95.6324 264.5053 13.15548245247745"
  },
  {
    "name": "ONEWEB-0248",
    "noradId": "48798",
    "line1": "1 48798U 21045AH  26194.65646282 -.00000111  00000+0 -32990-3 0  9999",
    "line2": "2 48798  87.9002 253.9172 0002448 108.1047 252.0350 13.15548953247893"
  },
  {
    "name": "ONEWEB-0225",
    "noradId": "48799",
    "line1": "1 48799U 21045AJ  26194.60259663  .00000080  00000+0  17869-3 0  9999",
    "line2": "2 48799  87.8988 253.9364 0002205 113.7106 246.4256 13.15547989247898"
  },
  {
    "name": "ONEWEB-0215",
    "noradId": "48800",
    "line1": "1 48800U 21045AK  26194.72459654 -.00000108  00000+0 -32076-3 0  9997",
    "line2": "2 48800  87.8997 253.8956 0002440 111.1244 249.0147 13.15549000247785"
  },
  {
    "name": "ONEWEB-0216",
    "noradId": "48801",
    "line1": "1 48801U 21045AL  26194.65805236 -.00000076  00000+0 -23681-3 0  9997",
    "line2": "2 48801  87.8986 253.9240 0001965  97.6632 262.4721 13.15547968247789"
  }
]